0 CZ-11 R/B
1 41847U 16066G   26155.63484800  .00001982  00000-0  28545-3 0  9992
2 41847  98.3817 231.5141 0342302 167.4688 193.5290 14.44651724502984
0 ALSAT 1N
1 41789U 16059G   26156.26599932  .00001034  00000-0  18238-3 0  9998
2 41789  97.8003 160.1476 0024591 224.1772 135.7471 14.69288289518255
0 CHUBUSAT 3
1 41339U 16012C   26156.11006537  .00005384  00000-0  24950-3 0  9996
2 41339  31.0057  49.9313 0009264 302.2987  57.6756 15.18452219566369
0 FOX-1
1 40967U 15058D   26155.94350760  .00003528  00000-0  31879-3 0  9997
2 40967  64.7764 317.0315 0129804  61.3870 300.0228 14.90905473111742
0 LQSAT
1 40958U 15057A   26156.28021013  .00000893  00000-0  13413-3 0  9996
2 40958  97.6678 150.2452 0016043 315.8162  44.1767 14.76769041573559
0 PRATHAM
1 41783U 16059A   26156.30885026  .00000693  00000-0  13073-3 0  9991
2 41783  97.8322 153.6885 0029756 255.9006 103.8892 14.67179321517777
0 LAPAN A3
1 41603U 16040E   26156.31182059  .00003481  00000-0  11127-3 0  9995
2 41603  97.1489 152.8488 0011993  63.6453 296.6020 15.33026612552994
HORYU-4
1 41340U 16012D   26152.43486084  .00260233  00000-0  10081-2 0  9993
2 41340  30.9850 193.7734 0002293 171.6706 188.3991 15.85409012568303
0 CHUBUSAT 2
1 41338U 16012B   26156.00279752  .00006857  00000-0  29823-3 0  9994
2 41338  30.9988  41.3384 0008892 313.0122  46.9774 15.20752885566568
0 LINGQIAO VIDEO A
1 40959U 15057B   26156.30589959  .00000997  00000-0  14684-3 0  9994
2 40959  97.6619 151.6944 0015708 312.6604  47.3282 14.77377256573651
0 LINGQIAO VIDEO B
1 40960U 15057C   26156.28342931  .00000869  00000-0  12847-3 0  9997
2 40960  97.6584 152.8398 0015868 312.7664  47.2211 14.77482640573693
0 JILIN 1
1 40961U 15057D   26156.30227313  .00000939  00000-0  13615-3 0  9999
2 40961  97.6506 156.2594 0015614 305.6043  54.3713 14.78140051573857
0 ELEKTRO-L 2
1 41105U 15074A   26156.06124635 -.00000106  00000-0  00000-0 0  9993
2 41105   6.6638  70.6705 0001332 281.5102 268.8844  1.00272317 38380
0 ZY 3 2
1 41556U 16033A   26156.28534187  .00005522  00000-0  24903-3 0  9997
2 41556  97.3832 232.2869 0011906 336.6615  23.4079 15.21360605556172
0 GAOFEN 3
1 41727U 16049A   26156.28970605 -.00000035  00000-0  24402-5 0  9994
2 41727  98.4011 164.2554 0001133  97.5951 262.5367 14.42213717516934
0 ORBCOMM FM 114
1 41179U 15081A   26152.97982418  .00000602  00000-0  16356-3 0  9993
2 41179  47.0052  73.9009 0001547 135.7645 224.3365 14.58838571555536
0 ORBCOMM FM 110
1 41182U 15081D   26153.99571428  .00000757  00000-0  19640-3 0  9995
2 41182  47.0024  68.5419 0003230 358.8742   1.2136 14.58854978555550
0 ORBCOMM FM 117
1 41188U 15081K   26153.73351514  .00000838  00000-0  21351-3 0  9997
2 41188  47.0011 249.1714 0002702 159.5688 200.5306 14.58849437558016
0 ORBCOMM FM 116
1 41189U 15081L   26156.17961067  .00000759  00000-0  19679-3 0  9991
2 41189  47.0034 327.3957 0001292 353.0293   7.0575 14.58864242557182
0 ORBCOMM FM 113
1 41185U 15081G   26156.20258946  .00000539  00000-0  15023-3 0  9991
2 41185  47.0019 327.2885 0001524 173.9999 186.0905 14.58845078557181
0 ORBCOMM FM 112
1 41184U 15081F   26156.15783895  .00000729  00000-0  19041-3 0  9995
2 41184  47.0001 327.1297 0002935 162.7897 197.3089 14.58885738557193
0 ORBCOMM FM 108
1 41187U 15081J   26152.94619103  .00000948  00000-0  23678-3 0  9995
2 41187  47.0049 254.2558 0002129 152.3962 207.7037 14.58851287557855
0 RESOURCESAT 2A
1 41877U 16074A   26156.31696769  .00000314  00000-0  16312-3 0  9996
2 41877  98.7525 229.9176 0003277 105.6680 254.4859 14.21613290492614
0 COSMOS 2507
1 40920U 15050A   26156.23855940  .00000109  00000-0  71580-3 0  9996
2 40920  82.4925  87.1091 0010681  21.5586 338.5941 12.42926569485372
0 COSMOS 2508
1 40921U 15050B   26156.27395816  .00000112  00000-0  73600-3 0  9991
2 40921  82.4878  85.5968 0015450  51.1791 309.0665 12.42913916485368
0 COSMOS 2509
1 40922U 15050C   26156.29400101  .00000089  00000-0  57380-3 0  9998
2 40922  82.4886  85.6854 0015866  67.0887 293.1866 12.42883383485401
0 YUNHAI 1
1 41857U 16068A   26156.29389132  .00000363  00000-0  14961-3 0  9999
2 41857  98.5830 167.4115 0006519  71.4276 288.7615 14.32697173500121
0 DAMPE
1 41173U 15078A   26156.27130524  .00001846  00000-0  64588-4 0  9995
2 41173  97.4558 161.6805 0013546 113.9776 246.2884 15.30754917582726
