OBJECT_NAME,OBJECT_ID,EPOCH,MEAN_MOTION,ECCENTRICITY,INCLINATION,RA_OF_ASC_NODE,ARG_OF_PERICENTER,MEAN_ANOMALY,EPHEMERIS_TYPE,CLASSIFICATION_TYPE,NORAD_CAT_ID,ELEMENT_SET_NO,REV_AT_EPOCH,BSTAR,MEAN_MOTION_DOT,MEAN_MOTION_DDOT
COSMOS 2507 (RODNIK-S 13),2015-050A,2026-06-05T05:43:31.532160,12.42926569,.00106814,82.4925,87.1091,21.5586,338.5941,0,U,40920,999,48537,.715799E-3,.109E-5,0
COSMOS 2508 (RODNIK-S 14),2015-050B,2026-06-05T06:34:29.985024,12.42913916,.00154503,82.4878,85.5968,51.1791,309.0665,0,U,40921,999,48536,.73599507E-3,.112E-5,0
COSMOS 2509 (RODNIK-S 15),2015-050C,2026-06-05T07:03:21.687264,12.42883383,.00158657,82.4886,85.6854,67.0887,293.1866,0,U,40922,999,48540,.57380083E-3,.89E-6,0
LQSAT,2015-057A,2026-06-05T06:43:30.155232,14.76769041,.00160429,97.6678,150.2452,315.8162,44.1767,0,U,40958,999,57355,.13412909E-3,.893E-5,0
LINGQIAO VIDEO A,2015-057B,2026-06-05T07:20:29.724576,14.77377256,.00157083,97.6619,151.6944,312.6604,47.3282,0,U,40959,999,57365,.14683965E-3,.997E-5,0
LINGQIAO VIDEO B,2015-057C,2026-06-05T06:48:08.292384,14.77482640,.00158685,97.6584,152.8398,312.7664,47.2211,0,U,40960,999,57369,.12847096E-3,.869E-5,0
JILIN-1,2015-057D,2026-06-05T07:15:16.398432,14.78140051,.00156143,97.6506,156.2594,305.6043,54.3713,0,U,40961,999,57385,.13615254E-3,.939E-5,0
FOX-1A (AO-85),2015-058D,2026-06-04T22:38:39.056640,14.90905473,.01298043,64.7764,317.0315,61.3870,300.0228,0,U,40967,999,11174,.31879391E-3,.3528E-4,0
ELEKTRO-L 2,2015-074A,2026-06-05T01:28:11.684640,1.00272317,.00013322,6.6638,70.6705,281.5102,268.8844,0,U,41105,999,3838,0,-.106E-5,0
DAMPE,2015-078A,2026-06-05T06:30:40.772736,15.30754917,.00135456,97.4558,161.6805,113.9776,246.2884,0,U,41173,999,58272,.64588073E-4,.1846E-4,0
ORBCOMM FM114,2015-081A,2026-06-01T23:30:56.809152,14.58838571,.00015469,47.0052,73.9009,135.7645,224.3365,0,U,41179,999,55553,.16355792E-3,.602E-5,0
ORBCOMM FM110,2015-081D,2026-06-02T23:53:49.713792,14.58854978,.00032303,47.0024,68.5419,358.8742,1.2136,0,U,41182,999,55555,.19639955E-3,.757E-5,0
ORBCOMM FM112,2015-081F,2026-06-05T03:47:17.285280,14.58885738,.00029346,47.0001,327.1297,162.7897,197.3089,0,U,41184,999,55719,.19041085E-3,.729E-5,0
ORBCOMM FM113,2015-081G,2026-06-05T04:51:43.729344,14.58845078,.00015242,47.0019,327.2885,173.9999,186.0905,0,U,41185,999,55718,.15022825E-3,.539E-5,0
ORBCOMM FM108,2015-081J,2026-06-01T22:42:30.904992,14.58851287,.00021293,47.0049,254.2558,152.3962,207.7037,0,U,41187,999,55785,.23678195E-3,.948E-5,0
ORBCOMM FM117,2015-081K,2026-06-02T17:36:15.708096,14.58849437,.00027018,47.0011,249.1714,159.5688,200.5306,0,U,41188,999,55801,.21351104E-3,.838E-5,0
ORBCOMM FM116,2015-081L,2026-06-05T04:18:38.361888,14.58864242,.0001292,47.0034,327.3957,353.0293,7.0575,0,U,41189,999,55718,.19679249E-3,.759E-5,0
CHUBUSAT-2,2016-012B,2026-06-05T00:04:01.705728,15.20752885,.00088923,30.9988,41.3384,313.0122,46.9774,0,U,41338,999,56656,.29822557E-3,.6857E-4,0
CHUBUSAT-3,2016-012C,2026-06-05T02:38:29.647968,15.18452219,.00092643,31.0057,49.9313,302.2987,57.6756,0,U,41339,999,56636,.24949791E-3,.5384E-4,0
HORYU-4,2016-012D,2026-06-01T10:26:11.976576,15.85409012,.00022929,30.9850,193.7734,171.6706,188.3991,0,U,41340,999,56830,.10080768E-2,.260233E-2,0
ZIYUAN 3-02 (ZY 3-02),2016-033A,2026-06-05T06:50:53.537568,15.21360605,.00119062,97.3832,232.2869,336.6615,23.4079,0,U,41556,999,55617,.24903345E-3,.5522E-4,0
LAPAN-A3,2016-040E,2026-06-05T07:29:01.298976,15.33026612,.00119926,97.1489,152.8488,63.6453,296.6020,0,U,41603,999,55299,.11126855E-3,.3481E-4,0
GAOFEN-3,2016-049A,2026-06-05T06:57:10.602720,14.42213717,.00011329,98.4011,164.2554,97.5951,262.5367,0,U,41727,999,51693,.2440199E-5,-.35E-6,0
PRATHAM,2016-059A,2026-06-05T07:24:44.662464,14.67179321,.00297561,97.8322,153.6885,255.9006,103.8892,0,U,41783,999,51777,.13072752E-3,.693E-5,0
ALSAT-1N,2016-059G,2026-06-05T06:23:02.341248,14.69288289,.00245909,97.8003,160.1476,224.1772,135.7471,0,U,41789,999,51825,.1823848E-3,.1034E-4,0
CAS-2T & KS-1Q,2016-066G,2026-06-04T15:14:10.867200,14.44651724,.03423023,98.3817,231.5141,167.4688,193.5290,0,U,41847,999,50298,.28544745E-3,.1982E-4,0
YUNHAI-1 01,2016-068A,2026-06-05T07:03:12.210048,14.32697173,.00065186,98.5830,167.4115,71.4276,288.7615,0,U,41857,999,50012,.14960529E-3,.363E-5,0
RESOURCESAT-2A,2016-074A,2026-06-05T07:36:26.008416,14.21613290,.00032771,98.7525,229.9176,105.6680,254.4859,0,U,41877,999,49261,.16312269E-3,.314E-5,0
